{
    "type": "FeatureCollection",
    "name": "training_samples",
    "crs": {
        "type": "name",
        "properties": {
            "name": "urn:ogc:def:crs:OGC:1.3:CRS84"
        }
    },
    "features": [
        {
            "type": "Feature",
            "properties": { "id": "0", "label": "rice" },
            "geometry": {
                "type": "Polygon",
                "coordinates": [
                    [
                        [82.828988, 22.384101],
                        [82.828988, 22.385599],
                        [82.833588, 22.385599],
                        [82.833588, 22.384101],
                        [82.828988, 22.384101]
                    ]
                ]
            }
        },
        {
            "type": "Feature",
            "properties": { "id": "0", "label": "rice" },
            "geometry": {
                "type": "Polygon",
                "coordinates": [
                    [
                        [86.083811, 21.097999],
                        [86.083811, 21.100061],
                        [86.085673, 21.100061],
                        [86.085673, 21.097999],
                        [86.083811, 21.097999]
                    ]
                ]
            }
        },
        {
            "type": "Feature",
            "properties": { "id": "0", "label": "rice" },
            "geometry": {
                "type": "Polygon",
                "coordinates": [
                    [
                        [86.193127, 21.262464],
                        [86.193127, 21.263544],
                        [86.195267, 21.263544],
                        [86.195267, 21.262464],
                        [86.193127, 21.262464]
                    ]
                ]
            }
        },
        {
            "type": "Feature",
            "properties": { "id": "0", "label": "rice" },
            "geometry": {
                "type": "Polygon",
                "coordinates": [
                    [
                        [85.788154, 22.53183],
                        [85.788154, 22.533623],
                        [85.792477, 22.533623],
                        [85.792477, 22.53183],
                        [85.788154, 22.53183]
                    ]
                ]
            }
        },
        {
            "type": "Feature",
            "properties": { "id": "0", "label": "rice" },
            "geometry": {
                "type": "Polygon",
                "coordinates": [
                    [
                        [85.792105, 22.528507],
                        [85.792105, 22.530721],
                        [85.793735, 22.530721],
                        [85.793735, 22.528507],
                        [85.792105, 22.528507]
                    ]
                ]
            }
        },
        {
            "type": "Feature",
            "geometry": {
                "geodesic": false,
                "type": "Polygon",
                "coordinates": [
                    [
                        [85.702237, 20.822879],
                        [85.702237, 20.825416],
                        [85.704544, 20.825416],
                        [85.704544, 20.822879],
                        [85.702237, 20.822879]
                    ]
                ]
            },
            "properties": { "label": "sugarcane" }
        },
        {
            "type": "Feature",
            "geometry": {
                "geodesic": false,
                "type": "Polygon",
                "coordinates": [
                    [
                        [85.704447, 20.826038],
                        [85.705488, 20.823922],
                        [85.707011, 20.824704],
                        [85.705681, 20.826609],
                        [85.704447, 20.826038]
                    ]
                ]
            },
            "properties": { "label": "sugarcane" }
        },
        {
            "type": "Feature",
            "geometry": {
                "geodesic": false,
                "type": "Polygon",
                "coordinates": [
                    [
                        [85.712518, 20.824729],
                        [85.714487, 20.824288],
                        [85.714894, 20.825346],
                        [85.712937, 20.825697],
                        [85.712518, 20.824729]
                    ]
                ]
            },
            "properties": { "label": "sugarcane" }
        },
        {
            "type": "Feature",
            "geometry": {
                "geodesic": false,
                "type": "Polygon",
                "coordinates": [
                    [
                        [76.939415, 11.008929],
                        [76.941308, 11.008997],
                        [76.941475, 11.007391],
                        [76.939619, 11.007186],
                        [76.939415, 11.008929]
                    ]
                ]
            },
            "properties": { "label": "sugarcane" }
        },
        {
            "type": "Feature",
            "geometry": {
                "geodesic": false,
                "type": "Polygon",
                "coordinates": [
                    [
                        [80.928034, 26.803289],
                        [80.931424, 26.800369],
                        [80.934063, 26.803615],
                        [80.93003, 26.805712],
                        [80.928034, 26.803289]
                    ]
                ]
            },
            "properties": { "label": "sugarcane" }
        },
        {
            "type": "Feature",
            "geometry": {
                "geodesic": false,
                "type": "Polygon",
                "coordinates": [
                    [
                        [85.772629, 20.556192],
                        [85.776019, 20.555157],
                        [85.776856, 20.557407],
                        [85.773412, 20.558482],
                        [85.772629, 20.556192]
                    ]
                ]
            },
            "properties": { "label": "corn" }
        },
        {
            "type": "Feature",
            "geometry": {
                "geodesic": false,
                "type": "Polygon",
                "coordinates": [
                    [
                        [85.776148, 20.555187],
                        [85.778197, 20.554363],
                        [85.779592, 20.556945],
                        [85.777178, 20.557789],
                        [85.776148, 20.555187]
                    ]
                ]
            },
            "properties": { "label": "corn" }
        },
        {
            "type": "Feature",
            "geometry": {
                "geodesic": false,
                "type": "Polygon",
                "coordinates": [
                    [
                        [85.779807, 20.557236],
                        [85.782639, 20.556292],
                        [85.783486, 20.558321],
                        [85.780858, 20.559286],
                        [85.779807, 20.557236]
                    ]
                ]
            },
            "properties": { "label": "corn" }
        },
        {
            "type": "Feature",
            "geometry": {
                "geodesic": false,
                "type": "Polygon",
                "coordinates": [
                    [
                        [85.777125, 20.560059],
                        [85.780204, 20.558602],
                        [85.781566, 20.560792],
                        [85.779024, 20.562289],
                        [85.777125, 20.560059]
                    ]
                ]
            },
            "properties": { "label": "corn" }
        },
        {
            "type": "Feature",
            "geometry": {
                "geodesic": false,
                "type": "Polygon",
                "coordinates": [
                    [
                        [85.781727, 20.560933],
                        [85.784913, 20.559677],
                        [85.785536, 20.561415],
                        [85.782682, 20.562751],
                        [85.781727, 20.560933]
                    ]
                ]
            },
            "properties": { "label": "corn" }
        }
    ]
}
